start=new Date('2022-04-13T00:00:00.000Z').valueOf();
sats=[{"MEAN_MOTION_DDOT":"0.0000000000000","APOAPSIS":"425.879","REV_AT_EPOCH":"366","SEMIMAJOR_AXIS":"6803.101","MEAN_ELEMENT_THEORY":"SGP4","SITE":"AFWTR","EPHEMERIS_TYPE":"0","CLASSIFICATION_TYPE":"U","CENTER_NAME":"EARTH","ECCENTRICITY":"0.00013420","TIME_SYSTEM":"UTC","DECAY_DATE":null,"TLE_LINE1":"1 51802U 22017AL  22102.91667824 -.00713140  00000-0 -14909-1 0  9990","OBJECT_ID":"2022-017AL","PERIAPSIS":"424.053","FILE":"3398892","PERIOD":"93.072","OBJECT_TYPE":"PAYLOAD","REF_FRAME":"TEME","ELEMENT_SET_NO":"999","NORAD_CAT_ID":"51802","RA_OF_ASC_NODE":"277.4257","MEAN_MOTION_DOT":"-0.00713140","BSTAR":"-0.01490900000000","INCLINATION":"53.2175","MEAN_ANOMALY":"117.6614","COUNTRY_CODE":"US","TLE_LINE2":"2 51802  53.2175 277.4257 0001342  71.2164 117.6614 15.47185542  3669","LAUNCH_DATE":"2022-02-25","OBJECT_NAME":"STARLINK-3557","GP_ID":"201096319","RCS_SIZE":"LARGE","MEAN_MOTION":"15.47185542","ARG_OF_PERICENTER":"71.2164","EPOCH":"2022-04-12T22:00:00.999936"},{"COUNTRY_CODE":"US","MEAN_ANOMALY":"64.8700","INCLINATION":"53.2173","BSTAR":"-0.01561000000000","MEAN_MOTION_DOT":"-0.00714331","RA_OF_ASC_NODE":"277.4266","NORAD_CAT_ID":"51803","ELEMENT_SET_NO":"999","REF_FRAME":"TEME","EPOCH":"2022-04-12T22:00:00.999936","ARG_OF_PERICENTER":"42.2165","MEAN_MOTION":"15.45912732","RCS_SIZE":"LARGE","GP_ID":"201096414","OBJECT_NAME":"STARLINK-3544","LAUNCH_DATE":"2022-02-25","TLE_LINE2":"2 51803  53.2173 277.4266 0001558  42.2165  64.8700 15.45912732  3662","TIME_SYSTEM":"UTC","ECCENTRICITY":"0.00015580","CENTER_NAME":"EARTH","CLASSIFICATION_TYPE":"U","SITE":"AFWTR","EPHEMERIS_TYPE":"0","MEAN_ELEMENT_THEORY":"SGP4","REV_AT_EPOCH":"366","SEMIMAJOR_AXIS":"6806.835","APOAPSIS":"429.760","MEAN_MOTION_DDOT":"0.0000000000000","OBJECT_TYPE":"PAYLOAD","PERIOD":"93.149","FILE":"3398892","TLE_LINE1":"1 51803U 22017AM  22102.91667824 -.00714331  00000-0 -15610-1 0  9994","PERIAPSIS":"427.639","DECAY_DATE":null,"OBJECT_ID":"2022-017AM"},{"EPHEMERIS_TYPE":"0","SITE":"AFWTR","MEAN_ELEMENT_THEORY":"SGP4","APOAPSIS":"350.959","REV_AT_EPOCH":"368","SEMIMAJOR_AXIS":"6728.108","MEAN_MOTION_DDOT":"0.0000000000000","TIME_SYSTEM":"UTC","CENTER_NAME":"EARTH","ECCENTRICITY":"0.00014660","CLASSIFICATION_TYPE":"U","TLE_LINE1":"1 51804U 22017AN  22102.91667824  .00110241  00000-0  78211-3 0  9991","DECAY_DATE":null,"OBJECT_ID":"2022-017AN","PERIAPSIS":"348.987","OBJECT_TYPE":"PAYLOAD","PERIOD":"91.538","FILE":"3398892","MEAN_MOTION_DOT":"0.00110241","RA_OF_ASC_NODE":"274.5697","NORAD_CAT_ID":"51804","ELEMENT_SET_NO":"999","REF_FRAME":"TEME","COUNTRY_CODE":"US","INCLINATION":"53.2158","MEAN_ANOMALY":"93.4823","BSTAR":"0.00078211000000","RCS_SIZE":"LARGE","GP_ID":"201096605","LAUNCH_DATE":"2022-02-25","OBJECT_NAME":"STARLINK-3601","TLE_LINE2":"2 51804  53.2158 274.5697 0001466  52.0920  93.4823 15.73125310  3683","EPOCH":"2022-04-12T22:00:00.999936","ARG_OF_PERICENTER":"52.0920","MEAN_MOTION":"15.73125310"},{"BSTAR":"0.00054583000000","INCLINATION":"53.2132","MEAN_ANOMALY":"74.3144","COUNTRY_CODE":"US","REF_FRAME":"TEME","NORAD_CAT_ID":"51805","ELEMENT_SET_NO":"999","RA_OF_ASC_NODE":"274.5808","MEAN_MOTION_DOT":"0.00076582","MEAN_MOTION":"15.73168583","ARG_OF_PERICENTER":"59.9641","EPOCH":"2022-04-12T22:00:00.999936","TLE_LINE2":"2 51805  53.2132 274.5808 0001446  59.9641  74.3144 15.73168583  3687","LAUNCH_DATE":"2022-02-25","OBJECT_NAME":"STARLINK-3605","GP_ID":"201096509","RCS_SIZE":"LARGE","CLASSIFICATION_TYPE":"U","CENTER_NAME":"EARTH","ECCENTRICITY":"0.00014460","TIME_SYSTEM":"UTC","MEAN_MOTION_DDOT":"0.0000000000000","APOAPSIS":"350.823","SEMIMAJOR_AXIS":"6727.985","REV_AT_EPOCH":"368","MEAN_ELEMENT_THEORY":"SGP4","SITE":"AFWTR","EPHEMERIS_TYPE":"0","FILE":"3398892","PERIOD":"91.535","OBJECT_TYPE":"PAYLOAD","TLE_LINE1":"1 51805U 22017AP  22102.91667824  .00076582  00000-0  54583-3 0  9997","PERIAPSIS":"348.877","DECAY_DATE":null,"OBJECT_ID":"2022-017AP"},{"OBJECT_TYPE":"PAYLOAD","PERIOD":"91.536","FILE":"3398892","TLE_LINE1":"1 51806U 22017AQ  22102.91667824  .00108946  00000-0  77195-3 0  9992","PERIAPSIS":"348.933","DECAY_DATE":null,"OBJECT_ID":"2022-017AQ","TIME_SYSTEM":"UTC","CENTER_NAME":"EARTH","ECCENTRICITY":"0.00014000","CLASSIFICATION_TYPE":"U","SITE":"AFWTR","MEAN_ELEMENT_THEORY":"SGP4","EPHEMERIS_TYPE":"0","APOAPSIS":"350.816","SEMIMAJOR_AXIS":"6728.009","REV_AT_EPOCH":"368","MEAN_MOTION_DDOT":"0.0000000000000","EPOCH":"2022-04-12T22:00:00.999936","ARG_OF_PERICENTER":"57.5031","MEAN_MOTION":"15.73159912","RCS_SIZE":"LARGE","GP_ID":"201095994","OBJECT_NAME":"STARLINK-3581","LAUNCH_DATE":"2022-02-25","TLE_LINE2":"2 51806  53.2139 274.5771 0001400  57.5031  79.9541 15.73159912  3689","COUNTRY_CODE":"US","INCLINATION":"53.2139","MEAN_ANOMALY":"79.9541","BSTAR":"0.00077195000000","MEAN_MOTION_DOT":"0.00108946","RA_OF_ASC_NODE":"274.5771","NORAD_CAT_ID":"51806","ELEMENT_SET_NO":"999","REF_FRAME":"TEME"},{"COUNTRY_CODE":"US","MEAN_ANOMALY":"84.9638","INCLINATION":"53.2138","BSTAR":"0.00031411000000","MEAN_MOTION_DOT":"0.00043676","RA_OF_ASC_NODE":"274.5795","ELEMENT_SET_NO":"999","NORAD_CAT_ID":"51807","REF_FRAME":"TEME","EPOCH":"2022-04-12T22:00:00.999936","ARG_OF_PERICENTER":"50.6144","MEAN_MOTION":"15.73191162","RCS_SIZE":"LARGE","GP_ID":"201096090","LAUNCH_DATE":"2022-02-25","OBJECT_NAME":"STARLINK-3606","TLE_LINE2":"2 51807  53.2138 274.5795 0001017  50.6144  84.9638 15.73191162  3684","TIME_SYSTEM":"UTC","ECCENTRICITY":"0.00010170","CENTER_NAME":"EARTH","CLASSIFICATION_TYPE":"U","EPHEMERIS_TYPE":"0","SITE":"AFWTR","MEAN_ELEMENT_THEORY":"SGP4","REV_AT_EPOCH":"368","SEMIMAJOR_AXIS":"6727.920","APOAPSIS":"350.470","MEAN_MOTION_DDOT":"0.0000000000000","OBJECT_TYPE":"PAYLOAD","PERIOD":"91.534","FILE":"3398892","OBJECT_ID":"2022-017AR","TLE_LINE1":"1 51807U 22017AR  22102.91667824  .00043676  00000-0  31411-3 0  9992","DECAY_DATE":null,"PERIAPSIS":"349.101"},{"FILE":"3398892","OBJECT_TYPE":"PAYLOAD","PERIOD":"91.533","PERIAPSIS":"349.022","TLE_LINE1":"1 51808U 22017AS  22102.91667824  .00044080  00000-0  31688-3 0  9999","DECAY_DATE":null,"OBJECT_ID":"2022-017AS","CLASSIFICATION_TYPE":"U","TIME_SYSTEM":"UTC","ECCENTRICITY":"0.00011090","CENTER_NAME":"EARTH","MEAN_MOTION_DDOT":"0.0000000000000","SITE":"AFWTR","EPHEMERIS_TYPE":"0","MEAN_ELEMENT_THEORY":"SGP4","REV_AT_EPOCH":"368","SEMIMAJOR_AXIS":"6727.903","APOAPSIS":"350.514","ARG_OF_PERICENTER":"65.7129","MEAN_MOTION":"15.73197245","EPOCH":"2022-04-12T22:00:00.999936","OBJECT_NAME":"STARLINK-3609","LAUNCH_DATE":"2022-02-25","TLE_LINE2":"2 51808  53.2140 274.5747 0001109  65.7129  73.0451 15.73197245  3687","RCS_SIZE":"LARGE","GP_ID":"201096661","MEAN_ANOMALY":"73.0451","INCLINATION":"53.2140","BSTAR":"0.00031688000000","COUNTRY_CODE":"US","NORAD_CAT_ID":"51808","ELEMENT_SET_NO":"999","REF_FRAME":"TEME","MEAN_MOTION_DOT":"0.00044080","RA_OF_ASC_NODE":"274.5747"},{"COUNTRY_CODE":"US","INCLINATION":"53.2135","MEAN_ANOMALY":"79.7765","BSTAR":"0.00077981000000","MEAN_MOTION_DOT":"0.00110098","RA_OF_ASC_NODE":"274.5779","NORAD_CAT_ID":"51809","ELEMENT_SET_NO":"999","REF_FRAME":"TEME","EPOCH":"2022-04-12T22:00:00.999936","ARG_OF_PERICENTER":"56.3961","MEAN_MOTION":"15.73164595","RCS_SIZE":"LARGE","GP_ID":"201096186","LAUNCH_DATE":"2022-02-25","OBJECT_NAME":"STARLINK-3607","TLE_LINE2":"2 51809  53.2135 274.5779 0001053  56.3961  79.7765 15.73164595  3688","TIME_SYSTEM":"UTC","CENTER_NAME":"EARTH","ECCENTRICITY":"0.00010530","CLASSIFICATION_TYPE":"U","SITE":"AFWTR","MEAN_ELEMENT_THEORY":"SGP4","EPHEMERIS_TYPE":"0","APOAPSIS":"350.570","SEMIMAJOR_AXIS":"6727.996","REV_AT_EPOCH":"368","MEAN_MOTION_DDOT":"0.0000000000000","OBJECT_TYPE":"PAYLOAD","PERIOD":"91.535","FILE":"3398892","TLE_LINE1":"1 51809U 22017AT  22102.91667824  .00110098  00000-0  77981-3 0  9999","OBJECT_ID":"2022-017AT","DECAY_DATE":null,"PERIAPSIS":"349.153"},{"COUNTRY_CODE":"US","BSTAR":"0.00051399000000","INCLINATION":"53.2138","MEAN_ANOMALY":"88.7118","RA_OF_ASC_NODE":"274.5713","MEAN_MOTION_DOT":"0.00072000","REF_FRAME":"TEME","ELEMENT_SET_NO":"999","NORAD_CAT_ID":"51810","EPOCH":"2022-04-12T22:00:00.999936","MEAN_MOTION":"15.73156082","ARG_OF_PERICENTER":"51.4304","GP_ID":"201096320","RCS_SIZE":"LARGE","TLE_LINE2":"2 51810  53.2138 274.5713 0001509  51.4304  88.7118 15.73156082  3688","LAUNCH_DATE":"2022-02-25","OBJECT_NAME":"STARLINK-3613","CENTER_NAME":"EARTH","ECCENTRICITY":"0.00015090","TIME_SYSTEM":"UTC","CLASSIFICATION_TYPE":"U","APOAPSIS":"350.901","SEMIMAJOR_AXIS":"6728.020","REV_AT_EPOCH":"368","EPHEMERIS_TYPE":"0","SITE":"AFWTR","MEAN_ELEMENT_THEORY":"SGP4","MEAN_MOTION_DDOT":"0.0000000000000","PERIOD":"91.536","OBJECT_TYPE":"PAYLOAD","FILE":"3398892","TLE_LINE1":"1 51810U 22017AU  22102.91667824  .00072000  00000-0  51399-3 0  9996","DECAY_DATE":null,"PERIAPSIS":"348.870","OBJECT_ID":"2022-017AU"},{"TLE_LINE1":"1 51811U 22017AV  22102.91667824  .00002104  00000-0  19396-4 0  9997","DECAY_DATE":null,"OBJECT_ID":"2022-017AV","PERIAPSIS":"348.852","OBJECT_TYPE":"PAYLOAD","PERIOD":"91.532","FILE":"3398892","SITE":"AFWTR","EPHEMERIS_TYPE":"0","MEAN_ELEMENT_THEORY":"SGP4","REV_AT_EPOCH":"368","SEMIMAJOR_AXIS":"6727.856","APOAPSIS":"350.590","MEAN_MOTION_DDOT":"0.0000000000000","TIME_SYSTEM":"UTC","ECCENTRICITY":"0.00012910","CENTER_NAME":"EARTH","CLASSIFICATION_TYPE":"U","RCS_SIZE":"LARGE","GP_ID":"201096415","LAUNCH_DATE":"2022-02-25","OBJECT_NAME":"STARLINK-3569","TLE_LINE2":"2 51811  53.2136 274.5744 0001291  67.7623  70.3426 15.73213741  3688","EPOCH":"2022-04-12T22:00:00.999936","ARG_OF_PERICENTER":"67.7623","MEAN_MOTION":"15.73213741","MEAN_MOTION_DOT":"0.00002104","RA_OF_ASC_NODE":"274.5744","ELEMENT_SET_NO":"999","NORAD_CAT_ID":"51811","REF_FRAME":"TEME","COUNTRY_CODE":"US","MEAN_ANOMALY":"70.3426","INCLINATION":"53.2136","BSTAR":"0.00001939600000"}];
